LEMUR-1                 
1 40044U 14033AL  26073.35587215  .00002761  00000+0  32449-3 0  9997
2 40044  97.7721 225.3663 0049185  30.7498 329.6583 14.84828530631393
LEMUR-2-GREENBERG       
1 42837U 17042N   26073.56972253  .00025719  00000+0  93548-3 0  9990
2 42837  97.3779 254.8585 0008795 345.9397  14.1597 15.28194289473925
LEMUR-2-ANDIS           
1 42838U 17042P   26073.46232942  .00027754  00000+0  93110-3 0  9990
2 42838  97.3661 254.6616 0008959 345.9434  14.1556 15.30815374473948
LEMUR-2-MONSON          
1 42839U 17042Q   26073.44846409  .00021285  00000+0  84899-3 0  9995
2 42839  97.4035 254.8359 0006274 334.7166  25.3764 15.25188754473716
LEMUR-2-FURIAUS         
1 42840U 17042R   26073.48478609  .00027285  00000+0  10439-2 0  9998
2 42840  97.3747 252.9650 0007410  40.6609 319.5181 15.26519265473748
LEMUR-2-PETERG          
1 42841U 17042S   26073.58448587  .00037283  00000+0  12847-2 0  9996
2 42841  97.3979 258.7383 0003492 321.8505  38.2488 15.29915306473955
LEMUR-2-DEMBITZ         
1 42842U 17042T   26073.45503557  .00022230  00000+0  83561-3 0  9990
2 42842  97.3806 255.8497 0006648 359.2423   0.8804 15.27153544473873
LEMUR-2-ZACHARY         
1 42845U 17042W   26073.58317188  .00055904  00000+0  12825-2 0  9998
2 42845  97.3656 263.7261 0003604 359.7127   0.4118 15.42537226474584
LEMUR-2-JIN-LUEN        
1 43182U 18014C   26073.53839265  .00336722  00000+0  16080-2 0  9990
2 43182  97.5423   4.2701 0005392 150.0161 210.1417 15.81911274446231
LEMUR-2-KADI            
1 43184U 18014E   26073.59338613  .00130830  00000+0  13059-2 0  9994
2 43184  97.4677 358.5525 0002466 142.1434 218.0000 15.65209891446159
LEMUR-2-AMANDA-SVANTE   
1 48269U 21034B   26073.62041931  .00042193  00000+0  15034-2 0  9996
2 48269  97.5829 149.7957 0003124 191.8118 168.3049 15.28793383266589
LEMUR-2-SPECIAL-K       
1 48273U 21034F   26073.63619964  .00103299  00000+0  20816-2 0  9998
2 48273  97.5712 155.1632 0001779 210.1353 149.9793 15.46180656267008
LEMUR-2-EMBRIONOVIS     
1 56970U 23084AQ  26073.36551192  .00020184  00000+0  59902-3 0  9996
2 56970  97.6133 214.1952 0008200 293.7243  66.3139 15.34810560153125
LEMUR-2-MANO            
1 57390U 23100E   26073.31445932  .00168726  00000+0  18802-2 0  9999
2 57390  99.4542  97.3802 0001381 184.2094 175.9146 15.62255128147203
LEMUR-2-DEVERILL-M-T    
1 57391U 23100F   26073.60482744  .00037674  00000+0  11048-2 0  9996
2 57391  99.4575  85.4206 0007296  13.5682 346.5749 15.35072776146710
LEMUR-2-BASS            
1 58259U 23174D   26072.98386908  .00019398  00000+0  48810-3 0  9997
2 58259  97.3874 156.5873 0008554 148.6371 211.5387 15.39937342130698
