[{"OBJECT_NAME":"LEMUR-1","OBJECT_ID":"2014-033AL","EPOCH":"2026-03-14T08:32:27.353760","MEAN_MOTION":14.8482853,"ECCENTRICITY":0.00491851,"INCLINATION":97.7721,"RA_OF_ASC_NODE":225.3663,"ARG_OF_PERICENTER":30.7498,"MEAN_ANOMALY":329.6583,"EPHEMERIS_TYPE":0,"CLASSIFICATION_TYPE":"U","NORAD_CAT_ID":40044,"ELEMENT_SET_NO":999,"REV_AT_EPOCH":63139,"BSTAR":0.00032449152,"MEAN_MOTION_DOT":2.761e-5,"MEAN_MOTION_DDOT":0},{"OBJECT_NAME":"LEMUR-2-GREENBERG","OBJECT_ID":"2017-042N","EPOCH":"2026-03-14T13:40:24.026592","MEAN_MOTION":15.28194289,"ECCENTRICITY":0.00087951,"INCLINATION":97.3779,"RA_OF_ASC_NODE":254.8585,"ARG_OF_PERICENTER":345.9397,"MEAN_ANOMALY":14.1597,"EPHEMERIS_TYPE":0,"CLASSIFICATION_TYPE":"U","NORAD_CAT_ID":42837,"ELEMENT_SET_NO":999,"REV_AT_EPOCH":47392,"BSTAR":0.00093548249,"MEAN_MOTION_DOT":0.00025719,"MEAN_MOTION_DDOT":0},{"OBJECT_NAME":"LEMUR-2-ANDIS","OBJECT_ID":"2017-042P","EPOCH":"2026-03-14T11:05:45.261888","MEAN_MOTION":15.30815374,"ECCENTRICITY":0.00089594,"INCLINATION":97.3661,"RA_OF_ASC_NODE":254.6616,"ARG_OF_PERICENTER":345.9434,"MEAN_ANOMALY":14.1556,"EPHEMERIS_TYPE":0,"CLASSIFICATION_TYPE":"U","NORAD_CAT_ID":42838,"ELEMENT_SET_NO":999,"REV_AT_EPOCH":47394,"BSTAR":0.00093110404,"MEAN_MOTION_DOT":0.00027754,"MEAN_MOTION_DDOT":0},{"OBJECT_NAME":"LEMUR-2-MONSON","OBJECT_ID":"2017-042Q","EPOCH":"2026-03-14T10:45:47.297376","MEAN_MOTION":15.25188754,"ECCENTRICITY":0.00062745,"INCLINATION":97.4035,"RA_OF_ASC_NODE":254.8359,"ARG_OF_PERICENTER":334.7166,"MEAN_ANOMALY":25.3764,"EPHEMERIS_TYPE":0,"CLASSIFICATION_TYPE":"U","NORAD_CAT_ID":42839,"ELEMENT_SET_NO":999,"REV_AT_EPOCH":47371,"BSTAR":0.00084899183,"MEAN_MOTION_DOT":0.00021285,"MEAN_MOTION_DDOT":0},{"OBJECT_NAME":"LEMUR-2-FURIAUS","OBJECT_ID":"2017-042R","EPOCH":"2026-03-14T11:38:05.518176","MEAN_MOTION":15.26519265,"ECCENTRICITY":0.00074108,"INCLINATION":97.3747,"RA_OF_ASC_NODE":252.965,"ARG_OF_PERICENTER":40.6609,"MEAN_ANOMALY":319.5181,"EPHEMERIS_TYPE":0,"CLASSIFICATION_TYPE":"U","NORAD_CAT_ID":42840,"ELEMENT_SET_NO":999,"REV_AT_EPOCH":47374,"BSTAR":0.0010439433,"MEAN_MOTION_DOT":0.00027285,"MEAN_MOTION_DDOT":0},{"OBJECT_NAME":"LEMUR-2-PETERG","OBJECT_ID":"2017-042S","EPOCH":"2026-03-14T14:01:39.579168","MEAN_MOTION":15.29915306,"ECCENTRICITY":0.00034924,"INCLINATION":97.3979,"RA_OF_ASC_NODE":258.7383,"ARG_OF_PERICENTER":321.8505,"MEAN_ANOMALY":38.2488,"EPHEMERIS_TYPE":0,"CLASSIFICATION_TYPE":"U","NORAD_CAT_ID":42841,"ELEMENT_SET_NO":999,"REV_AT_EPOCH":47395,"BSTAR":0.0012847213,"MEAN_MOTION_DOT":0.00037283,"MEAN_MOTION_DDOT":0},{"OBJECT_NAME":"LEMUR-2-DEMBITZ","OBJECT_ID":"2017-042T","EPOCH":"2026-03-14T10:55:15.073248","MEAN_MOTION":15.27153544,"ECCENTRICITY":0.00066487,"INCLINATION":97.3806,"RA_OF_ASC_NODE":255.8497,"ARG_OF_PERICENTER":359.2423,"MEAN_ANOMALY":0.8804,"EPHEMERIS_TYPE":0,"CLASSIFICATION_TYPE":"U","NORAD_CAT_ID":42842,"ELEMENT_SET_NO":999,"REV_AT_EPOCH":47387,"BSTAR":0.00083561103,"MEAN_MOTION_DOT":0.0002223,"MEAN_MOTION_DDOT":0},{"OBJECT_NAME":"LEMUR-2-ZACHARY","OBJECT_ID":"2017-042W","EPOCH":"2026-03-14T13:59:46.050432","MEAN_MOTION":15.42537226,"ECCENTRICITY":0.00036045,"INCLINATION":97.3656,"RA_OF_ASC_NODE":263.7261,"ARG_OF_PERICENTER":359.7127,"MEAN_ANOMALY":0.4118,"EPHEMERIS_TYPE":0,"CLASSIFICATION_TYPE":"U","NORAD_CAT_ID":42845,"ELEMENT_SET_NO":999,"REV_AT_EPOCH":47458,"BSTAR":0.0012824759,"MEAN_MOTION_DOT":0.00055904,"MEAN_MOTION_DDOT":0},{"OBJECT_NAME":"LEMUR-2-JIN-LUEN","OBJECT_ID":"2018-014C","EPOCH":"2026-03-14T12:55:17.124960","MEAN_MOTION":15.81911274,"ECCENTRICITY":0.00053922,"INCLINATION":97.5423,"RA_OF_ASC_NODE":4.2701,"ARG_OF_PERICENTER":150.0161,"MEAN_ANOMALY":210.1417,"EPHEMERIS_TYPE":0,"CLASSIFICATION_TYPE":"U","NORAD_CAT_ID":43182,"ELEMENT_SET_NO":999,"REV_AT_EPOCH":44623,"BSTAR":0.0016079874,"MEAN_MOTION_DOT":0.00336722,"MEAN_MOTION_DDOT":0},{"OBJECT_NAME":"LEMUR-2-KADI","OBJECT_ID":"2018-014E","EPOCH":"2026-03-14T14:14:28.561632","MEAN_MOTION":15.65209891,"ECCENTRICITY":0.00024668,"INCLINATION":97.4677,"RA_OF_ASC_NODE":358.5525,"ARG_OF_PERICENTER":142.1434,"MEAN_ANOMALY":218,"EPHEMERIS_TYPE":0,"CLASSIFICATION_TYPE":"U","NORAD_CAT_ID":43184,"ELEMENT_SET_NO":999,"REV_AT_EPOCH":44615,"BSTAR":0.0013058861,"MEAN_MOTION_DOT":0.0013083,"MEAN_MOTION_DDOT":0},{"OBJECT_NAME":"LEMUR-2-AMANDA-SVANTE","OBJECT_ID":"2021-034B","EPOCH":"2026-03-14T14:53:24.228384","MEAN_MOTION":15.28793383,"ECCENTRICITY":0.00031249,"INCLINATION":97.5829,"RA_OF_ASC_NODE":149.7957,"ARG_OF_PERICENTER":191.8118,"MEAN_ANOMALY":168.3049,"EPHEMERIS_TYPE":0,"CLASSIFICATION_TYPE":"U","NORAD_CAT_ID":48269,"ELEMENT_SET_NO":999,"REV_AT_EPOCH":26658,"BSTAR":0.0015034316,"MEAN_MOTION_DOT":0.00042193,"MEAN_MOTION_DDOT":0},{"OBJECT_NAME":"LEMUR-2-SPECIAL-K","OBJECT_ID":"2021-034F","EPOCH":"2026-03-14T15:16:07.648896","MEAN_MOTION":15.46180656,"ECCENTRICITY":0.00017797,"INCLINATION":97.5712,"RA_OF_ASC_NODE":155.1632,"ARG_OF_PERICENTER":210.1353,"MEAN_ANOMALY":149.9793,"EPHEMERIS_TYPE":0,"CLASSIFICATION_TYPE":"U","NORAD_CAT_ID":48273,"ELEMENT_SET_NO":999,"REV_AT_EPOCH":26700,"BSTAR":0.002081563,"MEAN_MOTION_DOT":0.00103299,"MEAN_MOTION_DDOT":0},{"OBJECT_NAME":"LEMUR-2-EMBRIONOVIS","OBJECT_ID":"2023-084AQ","EPOCH":"2026-03-14T08:46:20.229888","MEAN_MOTION":15.3481056,"ECCENTRICITY":0.00082005,"INCLINATION":97.6133,"RA_OF_ASC_NODE":214.1952,"ARG_OF_PERICENTER":293.7243,"MEAN_ANOMALY":66.3139,"EPHEMERIS_TYPE":0,"CLASSIFICATION_TYPE":"U","NORAD_CAT_ID":56970,"ELEMENT_SET_NO":999,"REV_AT_EPOCH":15312,"BSTAR":0.00059901773,"MEAN_MOTION_DOT":0.00020184,"MEAN_MOTION_DDOT":0},{"OBJECT_NAME":"LEMUR-2-MANO","OBJECT_ID":"2023-100E","EPOCH":"2026-03-14T07:32:49.285248","MEAN_MOTION":15.62255128,"ECCENTRICITY":0.00013819,"INCLINATION":99.4542,"RA_OF_ASC_NODE":97.3802,"ARG_OF_PERICENTER":184.2094,"MEAN_ANOMALY":175.9146,"EPHEMERIS_TYPE":0,"CLASSIFICATION_TYPE":"U","NORAD_CAT_ID":57390,"ELEMENT_SET_NO":999,"REV_AT_EPOCH":14720,"BSTAR":0.0018801773,"MEAN_MOTION_DOT":0.00168726,"MEAN_MOTION_DDOT":0},{"OBJECT_NAME":"LEMUR-2-DEVERILL-M-T","OBJECT_ID":"2023-100F","EPOCH":"2026-03-14T14:30:57.090816","MEAN_MOTION":15.35072776,"ECCENTRICITY":0.00072969,"INCLINATION":99.4575,"RA_OF_ASC_NODE":85.4206,"ARG_OF_PERICENTER":13.5682,"MEAN_ANOMALY":346.5749,"EPHEMERIS_TYPE":0,"CLASSIFICATION_TYPE":"U","NORAD_CAT_ID":57391,"ELEMENT_SET_NO":999,"REV_AT_EPOCH":14671,"BSTAR":0.0011048443,"MEAN_MOTION_DOT":0.00037674,"MEAN_MOTION_DDOT":0},{"OBJECT_NAME":"LEMUR-2-BASS","OBJECT_ID":"2023-174D","EPOCH":"2026-03-13T23:36:46.288512","MEAN_MOTION":15.39937342,"ECCENTRICITY":0.00085544,"INCLINATION":97.3874,"RA_OF_ASC_NODE":156.5873,"ARG_OF_PERICENTER":148.6371,"MEAN_ANOMALY":211.5387,"EPHEMERIS_TYPE":0,"CLASSIFICATION_TYPE":"U","NORAD_CAT_ID":58259,"ELEMENT_SET_NO":999,"REV_AT_EPOCH":13069,"BSTAR":0.00048810237,"MEAN_MOTION_DOT":0.00019398,"MEAN_MOTION_DDOT":0}]
